start=new Date('2021-12-19T00:00:00.000Z').valueOf();
sats=[{"MEAN_ANOMALY":"292.3804","NORAD_CAT_ID":"48472","RA_OF_ASC_NODE":"274.6655","FILE":"3243681","BSTAR":"-0.00005288900000","OBJECT_ID":"2021-040AW","PERIAPSIS":"545.716","TLE_LINE2":"2 48472  53.0531 274.6655 0002176  67.7416 292.3804 15.06396782 34042","TIME_SYSTEM":"UTC","SEMIMAJOR_AXIS":"6925.358","OBJECT_TYPE":"PAYLOAD","CLASSIFICATION_TYPE":"U","TLE_LINE1":"1 48472U 21040AW  21352.52407045 -.00001069  00000-0 -52889-4 0  9996","OBJECT_NAME":"STARLINK-2722","SITE":"AFETR","CENTER_NAME":"EARTH","MEAN_MOTION":"15.06396782","REV_AT_EPOCH":"3404","REF_FRAME":"TEME","EPOCH":"2021-12-18T12:34:39.686880","GP_ID":"191943440","RCS_SIZE":"LARGE","ELEMENT_SET_NO":"999","LAUNCH_DATE":"2021-05-09","ECCENTRICITY":"0.00021760","MEAN_ELEMENT_THEORY":"SGP4","PERIOD":"95.592","ARG_OF_PERICENTER":"67.7416","MEAN_MOTION_DOT":"-0.00001069","EPHEMERIS_TYPE":"0","APOAPSIS":"548.730","DECAY_DATE":null,"INCLINATION":"53.0531","MEAN_MOTION_DDOT":"0.0000000000000","COUNTRY_CODE":"US"},{"GP_ID":"191947978","ELEMENT_SET_NO":"999","RCS_SIZE":"LARGE","LAUNCH_DATE":"2021-05-09","SITE":"AFETR","MEAN_MOTION":"15.06374496","REV_AT_EPOCH":"3532","REF_FRAME":"TEME","EPOCH":"2021-12-18T11:52:12.913824","CENTER_NAME":"EARTH","OBJECT_TYPE":"PAYLOAD","CLASSIFICATION_TYPE":"U","SEMIMAJOR_AXIS":"6925.427","PERIAPSIS":"545.571","TLE_LINE2":"2 48473  53.0552 274.8127 0002484  66.2048 293.9201 15.06374496 35327","TIME_SYSTEM":"UTC","OBJECT_NAME":"STARLINK-2658","TLE_LINE1":"1 48473U 21040AX  21352.49459391  .00003545  00000-0  25695-3 0  9997","RA_OF_ASC_NODE":"274.8127","NORAD_CAT_ID":"48473","MEAN_ANOMALY":"293.9201","BSTAR":"0.00025695000000","FILE":"3243837","OBJECT_ID":"2021-040AX","COUNTRY_CODE":"US","MEAN_MOTION_DDOT":"0.0000000000000","DECAY_DATE":null,"INCLINATION":"53.0552","APOAPSIS":"549.012","MEAN_MOTION_DOT":"0.00003545","EPHEMERIS_TYPE":"0","ECCENTRICITY":"0.00024840","ARG_OF_PERICENTER":"66.2048","MEAN_ELEMENT_THEORY":"SGP4","PERIOD":"95.594"},{"TLE_LINE1":"1 48474U 21040AY  21352.52775251 -.00000937  00000-0 -43998-4 0  9999","OBJECT_NAME":"STARLINK-2697","TIME_SYSTEM":"UTC","PERIAPSIS":"545.628","TLE_LINE2":"2 48474  53.0533 274.6463 0002286  67.1666 292.9564 15.06400945 34042","OBJECT_TYPE":"PAYLOAD","CLASSIFICATION_TYPE":"U","SEMIMAJOR_AXIS":"6925.346","FILE":"3243681","BSTAR":"-0.00004399800000","OBJECT_ID":"2021-040AY","MEAN_ANOMALY":"292.9564","NORAD_CAT_ID":"48474","RA_OF_ASC_NODE":"274.6463","LAUNCH_DATE":"2021-05-09","ELEMENT_SET_NO":"999","RCS_SIZE":"LARGE","GP_ID":"191944654","CENTER_NAME":"EARTH","EPOCH":"2021-12-18T12:39:57.816864","REF_FRAME":"TEME","REV_AT_EPOCH":"3404","MEAN_MOTION":"15.06400945","SITE":"AFETR","EPHEMERIS_TYPE":"0","MEAN_MOTION_DOT":"-0.00000937","APOAPSIS":"548.794","PERIOD":"95.592","MEAN_ELEMENT_THEORY":"SGP4","ARG_OF_PERICENTER":"67.1666","ECCENTRICITY":"0.00022860","MEAN_MOTION_DDOT":"0.0000000000000","COUNTRY_CODE":"US","INCLINATION":"53.0533","DECAY_DATE":null},{"DECAY_DATE":null,"INCLINATION":"53.0566","MEAN_MOTION_DDOT":"0.0000000000000","COUNTRY_CODE":"US","ECCENTRICITY":"0.00021210","MEAN_ELEMENT_THEORY":"SGP4","PERIOD":"95.592","ARG_OF_PERICENTER":"61.7867","MEAN_MOTION_DOT":"-0.00000995","EPHEMERIS_TYPE":"0","APOAPSIS":"548.691","SITE":"AFETR","CENTER_NAME":"EARTH","MEAN_MOTION":"15.06397234","REV_AT_EPOCH":"3404","EPOCH":"2021-12-18T11:57:30.415680","REF_FRAME":"TEME","GP_ID":"191943642","ELEMENT_SET_NO":"999","RCS_SIZE":"LARGE","LAUNCH_DATE":"2021-05-09","MEAN_ANOMALY":"298.3336","RA_OF_ASC_NODE":"274.7886","NORAD_CAT_ID":"48475","FILE":"3243681","OBJECT_ID":"2021-040AZ","BSTAR":"-0.00004786400000","PERIAPSIS":"545.753","TLE_LINE2":"2 48475  53.0566 274.7886 0002121  61.7867 298.3336 15.06397234 34043","TIME_SYSTEM":"UTC","OBJECT_TYPE":"PAYLOAD","CLASSIFICATION_TYPE":"U","SEMIMAJOR_AXIS":"6925.357","TLE_LINE1":"1 48475U 21040AZ  21352.49826870 -.00000995  00000-0 -47864-4 0  9990","OBJECT_NAME":"STARLINK-2619"},{"MEAN_ANOMALY":"293.1718","RA_OF_ASC_NODE":"274.7036","NORAD_CAT_ID":"48476","BSTAR":"0.00008719100000","FILE":"3243681","OBJECT_ID":"2021-040BA","TLE_LINE2":"2 48476  53.0484 274.7036 0002346  66.9518 293.1718 15.06405609 34042","PERIAPSIS":"545.572","TIME_SYSTEM":"UTC","OBJECT_TYPE":"PAYLOAD","CLASSIFICATION_TYPE":"U","SEMIMAJOR_AXIS":"6925.331","TLE_LINE1":"1 48476U 21040BA  21352.52037672  .00001017  00000-0  87191-4 0  9990","OBJECT_NAME":"STARLINK-2723","SITE":"AFETR","CENTER_NAME":"EARTH","MEAN_MOTION":"15.06405609","EPOCH":"2021-12-18T12:29:20.548608","REF_FRAME":"TEME","REV_AT_EPOCH":"3404","GP_ID":"191943844","RCS_SIZE":"LARGE","ELEMENT_SET_NO":"999","LAUNCH_DATE":"2021-05-09","ECCENTRICITY":"0.00023460","MEAN_ELEMENT_THEORY":"SGP4","PERIOD":"95.592","ARG_OF_PERICENTER":"66.9518","MEAN_MOTION_DOT":"0.00001017","EPHEMERIS_TYPE":"0","APOAPSIS":"548.821","DECAY_DATE":null,"INCLINATION":"53.0484","MEAN_MOTION_DDOT":"0.0000000000000","COUNTRY_CODE":"US"},{"ECCENTRICITY":"0.00023670","PERIOD":"95.592","MEAN_ELEMENT_THEORY":"SGP4","ARG_OF_PERICENTER":"68.4465","EPHEMERIS_TYPE":"0","MEAN_MOTION_DOT":"0.00000979","APOAPSIS":"548.857","DECAY_DATE":null,"INCLINATION":"53.0567","MEAN_MOTION_DDOT":"0.0000000000000","COUNTRY_CODE":"US","MEAN_ANOMALY":"291.6776","NORAD_CAT_ID":"48478","RA_OF_ASC_NODE":"274.7582","FILE":"3243833","OBJECT_ID":"2021-040BC","BSTAR":"0.00008466700000","TIME_SYSTEM":"UTC","PERIAPSIS":"545.579","TLE_LINE2":"2 48478  53.0567 274.7582 0002367  68.4465 291.6776 15.06398595 34641","CLASSIFICATION_TYPE":"U","OBJECT_TYPE":"PAYLOAD","SEMIMAJOR_AXIS":"6925.353","OBJECT_NAME":"STARLINK-2728","TLE_LINE1":"1 48478U 02032DG  21352.50563602  .00000979  00000-0  84667-4 0  9998","SITE":"AFETR","CENTER_NAME":"EARTH","REV_AT_EPOCH":"3464","REF_FRAME":"TEME","EPOCH":"2021-12-18T12:08:06.952128","MEAN_MOTION":"15.06398595","GP_ID":"191947995","LAUNCH_DATE":"2021-05-09","RCS_SIZE":"LARGE","ELEMENT_SET_NO":"999"},{"CENTER_NAME":"EARTH","REF_FRAME":"TEME","REV_AT_EPOCH":"3537","EPOCH":"2021-12-18T20:00:30.018528","MEAN_MOTION":"15.06408841","SITE":"AFETR","LAUNCH_DATE":"2021-05-09","ELEMENT_SET_NO":"999","RCS_SIZE":"LARGE","GP_ID":"191947998","FILE":"3243833","BSTAR":"0.00008043200000","OBJECT_ID":"2021-040BD","MEAN_ANOMALY":"296.2119","NORAD_CAT_ID":"48479","RA_OF_ASC_NODE":"273.2844","TLE_LINE1":"1 48479U 21040BD  21352.83368077  .00000917  00000-0  80432-4 0  9992","OBJECT_NAME":"STARLINK-2755","TIME_SYSTEM":"UTC","TLE_LINE2":"2 48479  53.0561 273.2844 0002281  63.9104 296.2119 15.06408841 35375","PERIAPSIS":"545.607","CLASSIFICATION_TYPE":"U","OBJECT_TYPE":"PAYLOAD","SEMIMAJOR_AXIS":"6925.321","INCLINATION":"53.0561","DECAY_DATE":null,"MEAN_MOTION_DDOT":"0.0000000000000","COUNTRY_CODE":"US","PERIOD":"95.592","MEAN_ELEMENT_THEORY":"SGP4","ARG_OF_PERICENTER":"63.9104","ECCENTRICITY":"0.00022810","EPHEMERIS_TYPE":"0","MEAN_MOTION_DOT":"0.00000917","APOAPSIS":"548.766"},{"EPHEMERIS_TYPE":"0","MEAN_MOTION_DOT":"-0.00000857","APOAPSIS":"548.895","PERIOD":"95.592","MEAN_ELEMENT_THEORY":"SGP4","ARG_OF_PERICENTER":"59.7565","ECCENTRICITY":"0.00024240","MEAN_MOTION_DDOT":"0.0000000000000","COUNTRY_CODE":"US","INCLINATION":"53.0558","DECAY_DATE":null,"OBJECT_NAME":"STARLINK-2690","TLE_LINE1":"1 48480U 21040BE  21352.51577421 -.00000857  00000-0 -38617-4 0  9997","TIME_SYSTEM":"UTC","TLE_LINE2":"2 48480  53.0558 284.6975 0002424  59.7565 300.3664 15.06399240 33908","PERIAPSIS":"545.537","OBJECT_TYPE":"PAYLOAD","SEMIMAJOR_AXIS":"6925.351","CLASSIFICATION_TYPE":"U","BSTAR":"-0.00003861700000","FILE":"3243681","OBJECT_ID":"2021-040BE","MEAN_ANOMALY":"300.3664","NORAD_CAT_ID":"48480","RA_OF_ASC_NODE":"284.6975","LAUNCH_DATE":"2021-05-09","RCS_SIZE":"LARGE","ELEMENT_SET_NO":"999","GP_ID":"191943238","CENTER_NAME":"EARTH","EPOCH":"2021-12-18T12:22:42.891744","REF_FRAME":"TEME","REV_AT_EPOCH":"3390","MEAN_MOTION":"15.06399240","SITE":"AFETR"},{"MEAN_ANOMALY":"291.2165","RA_OF_ASC_NODE":"284.6375","NORAD_CAT_ID":"48481","OBJECT_ID":"2021-040BF","FILE":"3243681","BSTAR":"0.00000842590000","PERIAPSIS":"545.714","TLE_LINE2":"2 48481  53.0578 284.6375 0002172  68.9056 291.2165 15.06398457 33905","TIME_SYSTEM":"UTC","CLASSIFICATION_TYPE":"U","OBJECT_TYPE":"PAYLOAD","SEMIMAJOR_AXIS":"6925.353","TLE_LINE1":"1 48481U 21040BF  21352.52957563 -.00000156  00000-0  84259-5 0  9993","OBJECT_NAME":"STARLINK-2706","SITE":"AFETR","CENTER_NAME":"EARTH","MEAN_MOTION":"15.06398457","REF_FRAME":"TEME","EPOCH":"2021-12-18T12:42:35.334432","REV_AT_EPOCH":"3390","GP_ID":"191943441","RCS_SIZE":"LARGE","ELEMENT_SET_NO":"999","LAUNCH_DATE":"2021-05-09","ECCENTRICITY":"0.00021720","MEAN_ELEMENT_THEORY":"SGP4","PERIOD":"95.592","ARG_OF_PERICENTER":"68.9056","MEAN_MOTION_DOT":"-0.00000156","EPHEMERIS_TYPE":"0","APOAPSIS":"548.722","DECAY_DATE":null,"INCLINATION":"53.0578","MEAN_MOTION_DDOT":"0.0000000000000","COUNTRY_CODE":"US"},{"INCLINATION":"53.0564","DECAY_DATE":null,"MEAN_MOTION_DDOT":"0.0000000000000","COUNTRY_CODE":"US","MEAN_ELEMENT_THEORY":"SGP4","PERIOD":"95.592","ARG_OF_PERICENTER":"60.6693","ECCENTRICITY":"0.00021930","MEAN_MOTION_DOT":"-0.00001219","EPHEMERIS_TYPE":"0","APOAPSIS":"548.744","CENTER_NAME":"EARTH","MEAN_MOTION":"15.06396097","REV_AT_EPOCH":"3390","REF_FRAME":"TEME","EPOCH":"2021-12-18T12:33:20.170368","SITE":"AFETR","RCS_SIZE":"LARGE","ELEMENT_SET_NO":"999","LAUNCH_DATE":"2021-05-09","GP_ID":"191944048","OBJECT_ID":"2021-040BG","FILE":"3243681","BSTAR":"-0.00006296100000","MEAN_ANOMALY":"299.4515","RA_OF_ASC_NODE":"284.6717","NORAD_CAT_ID":"48482","OBJECT_NAME":"STARLINK-2525","TLE_LINE1":"1 48482U 21040BG  21352.52315012 -.00001219  00000-0 -62961-4 0  9998","TLE_LINE2":"2 48482  53.0564 284.6717 0002193  60.6693 299.4515 15.06396097 33907","PERIAPSIS":"545.707","TIME_SYSTEM":"UTC","OBJECT_TYPE":"PAYLOAD","CLASSIFICATION_TYPE":"U","SEMIMAJOR_AXIS":"6925.361"}];
